ONEWEB-0461             
1 51649U 22012AD  25026.81076975 -.00000096  00000+0 -28143-3 0  9997
2 51649  87.9079 106.7421 0001835 102.1165 258.0172 13.17648297148490
ONEWEB-0463             
1 51650U 22012AE  25026.26066084  .00000060  00000+0  12222-3 0  9998
2 51650  87.9087 106.9081 0001717 101.8452 258.2872 13.17648618146910
ONEWEB-0464             
1 51651U 22012AF  25026.78268239 -.00000549  00000+0 -16093-2 0  9995
2 51651  87.8921 137.1866 0001818 118.4501 241.6810 13.10368814144304
ONEWEB-0468             
1 51652U 22012AG  25026.78932029 -.00000625  00000+0 -18260-2 0  9994
2 51652  87.8921 137.1771 0001642 109.0409 251.0897 13.10371049144278
ONEWEB-0473             
1 51653U 22012AH  25026.23988555 -.00000281  00000+0 -84005-3 0  9999
2 51653  87.8921 137.2897 0001541 111.2715 248.8577 13.10369517142917
ONEWEB-0474             
1 51654U 22012AJ  25026.23159559  .00000154  00000+0  40496-3 0  9997
2 51654  87.8908 137.2676 0001568 116.3912 243.7376 13.10368889142903
ONEWEB-0475             
1 51655U 22012AK  25026.19652051 -.00000514  00000+0 -13571-2 0  9993
2 51655  87.9087 106.9005 0001267 129.5773 230.5470 13.17648982146926
ONEWEB-0490             
1 54113U 22138A   25026.60259916  .00000094  00000+0  20318-3 0  9992
2 54113  87.9138  45.6643 0001827  97.7459 262.3882 13.19725896110014
